ONEWEB-0647             
1 56079U 23043AK  24107.59650801 -.00000241  00000+0 -67424-3 0  9991
2 56079  87.9025  56.7581 0001692  72.6898 287.4418 13.15548509 52349
ONEWEB-0651             
1 56080U 23043AL  24107.59176301 -.00000230  00000+0 -64511-3 0  9993
2 56080  87.9029  56.7339 0002023  68.6269 291.5077 13.15548306 53547
ONEWEB-0718             
1 56081U 23043AM  24107.58702032 -.00000099  00000+0 -29620-3 0  9994
2 56081  87.9029  56.7215 0002446  91.6764 268.4646 13.15547779 52352
ONEWEB-0668             
1 56711U 23068B   24107.49228343  .00000137  00000+0  32434-3 0  9997
2 56711  87.9140  26.3611 0002495  85.2942 274.8474 13.16591535 47602
ONEWEB-0677             
1 56713U 23068D   24107.60395373  .00000075  00000+0  12401-3 0  9993
2 56713  88.3241  70.4941 0002058  66.3496 293.7862 13.34782914 45237
